COSMOS 2433 [GLONASS-M] 
1 32275U 07052A   26136.00612854 -.00000028  00000+0  00000+0 0  9996
2 32275  65.5957 317.0165 0001561 187.3531 172.6516  2.13104036144379
COSMOS 2432 [GLONASS-M] 
1 32276U 07052B   26139.12857253 -.00000036  00000+0  00000+0 0  9996
2 32276  65.6097 317.0384 0008183 336.1690 203.2625  2.13103093144460
COSMOS 2434 [GLONASS-M] 
1 32393U 07065A   26138.12313759  .00000069  00000+0  00000+0 0  9992
2 32393  64.3157 192.9296 0001038  15.7425  58.3480  2.13101438143135
COSMOS 2436 [GLONASS-M] 
1 32395U 07065C   26133.26899799  .00000072  00000+0  00000+0 0  9991
2 32395  64.3244 193.1651 0017150 356.7973  85.8341  2.13100439142983
COSMOS 2456 [GLONASS-M] 
1 36111U 09070A   26138.53096630 -.00000014  00000+0  00000+0 0  9994
2 36111  64.9950  71.9832 0005633 322.1109 222.8300  2.13103734127799
COSMOS 2457 [GLONASS-M] 
1 36112U 09070B   26138.82717193 -.00000013  00000+0  00000+0 0  9990
2 36112  64.9806  71.8179 0001598 141.1270  38.7306  2.13101115127800
COSMOS 2460 [GLONASS-M] 
1 36402U 10007C   26136.70942285 -.00000031  00000+0  00000+0 0  9991
2 36402  65.4389 315.5319 0002205  80.0171 277.1198  2.13106192126059
COSMOS 2476 [GLONASS-M] 
1 37867U 11064A   26138.12803505 -.00000012  00000+0  00000+0 0  9999
2 37867  65.2542  73.8857 0023555 241.1828 262.9765  2.13103791113123
COSMOS 2477 [GLONASS-M] 
1 37868U 11064B   26138.37759807 -.00000011  00000+0  00000+0 0  9991
2 37868  65.2606  73.9568 0020653 242.8032 273.2430  2.13103003113126
COSMOS 2475 [GLONASS-M] 
1 37869U 11064C   26138.47126039 -.00000010  00000+0  00000+0 0  9997
2 37869  65.2674  73.9746 0026321 254.6159 288.5247  2.13101629113137
COSMOS 2485 [GLONASS-M] 
1 39155U 13019A   26136.93884259 -.00000013  00000+0  00000+0 0  9996
2 39155  65.4034  74.6527 0023930 236.5180 123.2327  2.13103279101617
COSMOS 2492 [GLONASS-M] 
1 39620U 14012A   26138.30555784 -.00000035  00000+0  00000+0 0  9992
2 39620  65.3152 314.9514 0010963 329.1822  30.7487  2.13103191 94606
COSMOS 2500 [GLONASS-M] 
1 40001U 14032A   26133.78320435 -.00000016  00000+0  00000+0 0  9998
2 40001  65.2537 314.8550 0006428 181.4566 178.5543  2.13106574 92724
COSMOS 2501 [GLONASS-K] 
1 40315U 14075A   26138.73741775  .00000061  00000+0  00000+0 0  9996
2 40315  63.6142 191.3916 0022288 211.1583 148.7943  2.13101330 89221
COSMOS 2514 [GLONASS-M] 
1 41330U 16008A   26138.72179146 -.00000035  00000+0  00000+0 0  9990
2 41330  65.0400 314.0175 0010198 196.8731 163.0866  2.13102536 79990
COSMOS 2522 [GLONASS-M] 
1 42939U 17055A   26139.02891852  .00000056  00000+0  00000+0 0  9990
2 42939  64.0783 192.8783 0009757 218.2478 141.7671  2.13104887 67357
COSMOS 2527 [GLONASS-M] 
1 43508U 18053A   26138.99039913 -.00000007  00000+0  00000+0 0  9996
2 43508  65.5627  74.8810 0008024 245.8811 114.0209  2.13102026 61656
COSMOS 2529 [GLONASS-M] 
1 43687U 18086A   26138.14863914  .00000068  00000+0  00000+0 0  9999
2 43687  64.2929 193.6085 0011215 256.0071 103.9560  2.13102075 58643
COSMOS 2534 [GLONASS-M] 
1 44299U 19030A   26137.13200311  .00000079  00000+0  00000+0 0  9995
2 44299  64.3664 193.6622 0012672 275.7727 158.8051  2.13102301 54261
COSMOS 2544 [GLONASS-M] 
1 44850U 19088A   26137.99658669 -.00000010  00000+0  00000+0 0  9994
2 44850  65.5497  74.7379 0014015 261.0437  98.7800  2.13102034 50070
COSMOS 2545 [GLONASS-M] 
1 45358U 20018A   26135.84549925 -.00000029  00000+0  00000+0 0  9999
2 45358  64.3753 313.5554 0007490 233.4064 126.5264  2.13102449 47972
COSMOS 2547 [GLONASS-K] 
1 46805U 20075A   26136.03478387  .00000085  00000+0  00000+0 0  9996
2 46805  64.5980 193.5508 0008894 241.7969 118.2028  2.13102438 43222
COSMOS 2557 [GLONASS-K] 
1 52984U 22075A   26133.38373156 -.00000017  00000+0  00000+0 0  9992
2 52984  64.3189 315.7114 0010072 279.0223  80.8784  2.13102035 29977
COSMOS 2559 [GLONASS-K] 
1 54031U 22130A   26135.08031582 -.00000026  00000+0  00000+0 0  9992
2 54031  64.2912 315.7357 0011733 176.0930 183.9248  2.13101469 27989
COSMOS 2564 [GLONASS-M] 
1 54377U 22161A   26139.14704736  .00000054  00000+0  00000+0 0  9998
2 54377  64.7394 193.6756 0011691 222.7281 137.2648  2.13101960 27014
COSMOS 2569 [GLONASS-K2]
1 57517U 23114A   26138.22088709 -.00000012  00000+0  00000+0 0  9994
2 57517  65.2863  73.6305 0011755 296.4235  63.4403  2.13103653 21626
COSMOS 2584 [GLONASS-K2]
1 63130U 25042A   26139.04628872 -.00000009  00000+0  00000+0 0  9992
2 63130  65.0688  73.7923 0006174 233.4667 126.4639  2.13103706  9427
COSMOS 2596 [GLONASS-K1]
1 65590U 25206B   26137.30119471 -.00000035  00000+0  00000+0 0  9992
2 65590  64.6536 316.0604 0011223 315.3902 262.4505  2.13100394  5258
